CCSDS_OMM_VERS = 2.0
CREATION_DATE  = 
ORIGINATOR     = 

OBJECT_NAME    = UNKNOWN
OBJECT_ID      = 
CENTER_NAME    = EARTH
REF_FRAME      = TEME
TIME_SYSTEM    = UTC
MEAN_ELEMENT_THEORY = SGP/SGP4

EPOCH          = 2026-01-27T14:56:46.763808
MEAN_MOTION    = 14.08864382
ECCENTRICITY   = .0059581
INCLINATION    = 89.9996
RA_OF_ASC_NODE = 271.6840
ARG_OF_PERICENTER = 87.5584
MEAN_ANOMALY   = 273.2420

EPHEMERIS_TYPE = 0
CLASSIFICATION_TYPE = U
NORAD_CAT_ID   = 87334
ELEMENT_SET_NO = 999
REV_AT_EPOCH   = 39310
BSTAR          = .14931E-1
MEAN_MOTION_DOT = .26294E-3
MEAN_MOTION_DDOT = 0

CCSDS_OMM_VERS = 2.0
CREATION_DATE  = 
ORIGINATOR     = 

OBJECT_NAME    = UNKNOWN
OBJECT_ID      = 
CENTER_NAME    = EARTH
REF_FRAME      = TEME
TIME_SYSTEM    = UTC
MEAN_ELEMENT_THEORY = SGP/SGP4

EPOCH          = 2026-01-27T14:57:51.904224
MEAN_MOTION    = 14.09075043
ECCENTRICITY   = .008044
INCLINATION    = 89.9863
RA_OF_ASC_NODE = 267.9156
ARG_OF_PERICENTER = 68.5790
MEAN_ANOMALY   = 292.3951

EPHEMERIS_TYPE = 0
CLASSIFICATION_TYPE = U
NORAD_CAT_ID   = 87335
ELEMENT_SET_NO = 999
REV_AT_EPOCH   = 39343
BSTAR          = .13624E-1
MEAN_MOTION_DOT = .24408E-3
MEAN_MOTION_DDOT = 0

CCSDS_OMM_VERS = 2.0
CREATION_DATE  = 
ORIGINATOR     = 

OBJECT_NAME    = UNKNOWN
OBJECT_ID      = 
CENTER_NAME    = EARTH
REF_FRAME      = TEME
TIME_SYSTEM    = UTC
MEAN_ELEMENT_THEORY = SGP/SGP4

EPOCH          = 2026-01-25T06:39:03.464352
MEAN_MOTION    = 13.96564361
ECCENTRICITY   = .0057206
INCLINATION    = 82.7487
RA_OF_ASC_NODE = 25.7625
ARG_OF_PERICENTER = 202.7699
MEAN_ANOMALY   = 157.0931

EPHEMERIS_TYPE = 0
CLASSIFICATION_TYPE = U
NORAD_CAT_ID   = 87405
ELEMENT_SET_NO = 999
REV_AT_EPOCH   = 61723
BSTAR          = .21906E-2
MEAN_MOTION_DOT = .3087E-4
MEAN_MOTION_DDOT = 0

CCSDS_OMM_VERS = 2.0
CREATION_DATE  = 
ORIGINATOR     = 

OBJECT_NAME    = UNKNOWN
OBJECT_ID      = 
CENTER_NAME    = EARTH
REF_FRAME      = TEME
TIME_SYSTEM    = UTC
MEAN_ELEMENT_THEORY = SGP/SGP4

EPOCH          = 2026-01-27T12:12:42.176736
MEAN_MOTION    = 14.30196405
ECCENTRICITY   = .0068007
INCLINATION    = 65.7842
RA_OF_ASC_NODE = 210.4092
ARG_OF_PERICENTER = 272.3743
MEAN_ANOMALY   = 118.9648

EPHEMERIS_TYPE = 0
CLASSIFICATION_TYPE = U
NORAD_CAT_ID   = 87426
ELEMENT_SET_NO = 999
REV_AT_EPOCH   = 62913
BSTAR          = .27156E-2
MEAN_MOTION_DOT = .7139E-4
MEAN_MOTION_DDOT = 0

CCSDS_OMM_VERS = 2.0
CREATION_DATE  = 
ORIGINATOR     = 

OBJECT_NAME    = UNKNOWN
OBJECT_ID      = 
CENTER_NAME    = EARTH
REF_FRAME      = TEME
TIME_SYSTEM    = UTC
MEAN_ELEMENT_THEORY = SGP/SGP4

EPOCH          = 2026-01-27T13:20:27.105792
MEAN_MOTION    = 13.90761943
ECCENTRICITY   = .0062787
INCLINATION    = 100.4523
RA_OF_ASC_NODE = 244.7362
ARG_OF_PERICENTER = 84.6421
MEAN_ANOMALY   = 276.1893

EPHEMERIS_TYPE = 0
CLASSIFICATION_TYPE = U
NORAD_CAT_ID   = 87448
ELEMENT_SET_NO = 999
REV_AT_EPOCH   = 61560
BSTAR          = .15409E-2
MEAN_MOTION_DOT = .1903E-4
MEAN_MOTION_DDOT = 0

CCSDS_OMM_VERS = 2.0
CREATION_DATE  = 
ORIGINATOR     = 

OBJECT_NAME    = UNKNOWN
OBJECT_ID      = 
CENTER_NAME    = EARTH
REF_FRAME      = TEME
TIME_SYSTEM    = UTC
MEAN_ELEMENT_THEORY = SGP/SGP4

EPOCH          = 2026-01-26T05:10:52.781088
MEAN_MOTION    = 14.14458800
ECCENTRICITY   = .051071
INCLINATION    = 65.7802
RA_OF_ASC_NODE = 332.8742
ARG_OF_PERICENTER = 342.0853
MEAN_ANOMALY   = 16.2781

EPHEMERIS_TYPE = 0
CLASSIFICATION_TYPE = U
NORAD_CAT_ID   = 87456
ELEMENT_SET_NO = 999
REV_AT_EPOCH   = 61778
BSTAR          = .31219E-2
MEAN_MOTION_DOT = .21739E-3
MEAN_MOTION_DDOT = 0

CCSDS_OMM_VERS = 2.0
CREATION_DATE  = 
ORIGINATOR     = 

OBJECT_NAME    = UNKNOWN
OBJECT_ID      = 
CENTER_NAME    = EARTH
REF_FRAME      = TEME
TIME_SYSTEM    = UTC
MEAN_ELEMENT_THEORY = SGP/SGP4

EPOCH          = 2026-01-21T18:40:28.258176
MEAN_MOTION    = 13.61546179
ECCENTRICITY   = .0675698
INCLINATION    = 65.8185
RA_OF_ASC_NODE = 135.2421
ARG_OF_PERICENTER = 287.3753
MEAN_ANOMALY   = 146.8912

EPHEMERIS_TYPE = 0
CLASSIFICATION_TYPE = U
NORAD_CAT_ID   = 87517
ELEMENT_SET_NO = 999
REV_AT_EPOCH   = 59836
BSTAR          = .22318E-2
MEAN_MOTION_DOT = .8188E-4
MEAN_MOTION_DDOT = 0

CCSDS_OMM_VERS = 2.0
CREATION_DATE  = 
ORIGINATOR     = 

OBJECT_NAME    = UNKNOWN
OBJECT_ID      = 
CENTER_NAME    = EARTH
REF_FRAME      = TEME
TIME_SYSTEM    = UTC
MEAN_ELEMENT_THEORY = SGP/SGP4

EPOCH          = 2026-01-10T10:19:02.081280
MEAN_MOTION    = 13.35601126
ECCENTRICITY   = .0059564
INCLINATION    = 99.6994
RA_OF_ASC_NODE = 227.9070
ARG_OF_PERICENTER = 192.8657
MEAN_ANOMALY   = 291.0153

EPHEMERIS_TYPE = 0
CLASSIFICATION_TYPE = U
NORAD_CAT_ID   = 87541
ELEMENT_SET_NO = 999
REV_AT_EPOCH   = 58586
BSTAR          = .22386E-3
MEAN_MOTION_DOT = .73E-6
MEAN_MOTION_DDOT = 0

CCSDS_OMM_VERS = 2.0
CREATION_DATE  = 
ORIGINATOR     = 

OBJECT_NAME    = UNKNOWN
OBJECT_ID      = 
CENTER_NAME    = EARTH
REF_FRAME      = TEME
TIME_SYSTEM    = UTC
MEAN_ELEMENT_THEORY = SGP/SGP4

EPOCH          = 2026-01-26T00:11:28.927680
MEAN_MOTION    = 13.53722635
ECCENTRICITY   = .069603
INCLINATION    = 65.6673
RA_OF_ASC_NODE = 248.7144
ARG_OF_PERICENTER = 207.8629
MEAN_ANOMALY   = 148.3471

EPHEMERIS_TYPE = 0
CLASSIFICATION_TYPE = U
NORAD_CAT_ID   = 87553
ELEMENT_SET_NO = 999
REV_AT_EPOCH   = 59724
BSTAR          = .1213E-2
MEAN_MOTION_DOT = .3936E-4
MEAN_MOTION_DDOT = 0

CCSDS_OMM_VERS = 2.0
CREATION_DATE  = 
ORIGINATOR     = 

OBJECT_NAME    = UNKNOWN
OBJECT_ID      = 
CENTER_NAME    = EARTH
REF_FRAME      = TEME
TIME_SYSTEM    = UTC
MEAN_ELEMENT_THEORY = SGP/SGP4

EPOCH          = 2026-01-25T19:52:04.610496
MEAN_MOTION    = 13.28216857
ECCENTRICITY   = .0079622
INCLINATION    = 101.7488
RA_OF_ASC_NODE = 252.0644
ARG_OF_PERICENTER = 287.9240
MEAN_ANOMALY   = 71.3206

EPHEMERIS_TYPE = 0
CLASSIFICATION_TYPE = U
NORAD_CAT_ID   = 87557
ELEMENT_SET_NO = 999
REV_AT_EPOCH   = 57088
BSTAR          = .122E-1
MEAN_MOTION_DOT = .5595E-4
MEAN_MOTION_DDOT = 0

CCSDS_OMM_VERS = 2.0
CREATION_DATE  = 
ORIGINATOR     = 

OBJECT_NAME    = UNKNOWN
OBJECT_ID      = 
CENTER_NAME    = EARTH
REF_FRAME      = TEME
TIME_SYSTEM    = UTC
MEAN_ELEMENT_THEORY = SGP/SGP4

EPOCH          = 2026-01-23T15:06:28.931328
MEAN_MOTION    = 12.32162462
ECCENTRICITY   = .0175874
INCLINATION    = 102.0034
RA_OF_ASC_NODE = 85.0011
ARG_OF_PERICENTER = 216.3867
MEAN_ANOMALY   = 298.6831

EPHEMERIS_TYPE = 0
CLASSIFICATION_TYPE = U
NORAD_CAT_ID   = 87561
ELEMENT_SET_NO = 999
REV_AT_EPOCH   = 54759
BSTAR          = .43772E-3
MEAN_MOTION_DOT = .12E-6
MEAN_MOTION_DDOT = 0

